2022-080H               
1 53112U 22080H   22207.29133216 -.00000003  00000+0  00000+0 0  9996
2 53112  70.1386  72.9501 0009345 259.2772 100.6820  6.42593043   708
DRAGON CRS-25           
1 53113U 22081A   22218.55535891  .00004937  00000+0  93619-4 0  9996
2 53113  51.6436  87.0783 0005353  89.6538   4.1917 15.50250164352997
SUPERVIEW NEO-2 O1      
1 53128U 22082A   22220.46122567  .00002507  00000+0  10420-3 0  9997
2 53128  97.3855 228.1271 0013218 176.3614 349.6920 15.24655755  3588
CZ-2C DEB               
1 53129U 22082B   22219.76402643  .00018634  00000+0  73279-3 0  9994
2 53129  97.3856 227.4650 0013706 184.7156 175.3955 15.25620692  3483
SUPERVIEW NEO-2 02      
1 53130U 22082C   22220.50693472  .00005614  00000+0  22972-3 0  9990
2 53130  97.3870 228.1992 0011695 182.3647 296.4641 15.24667923  3598
CZ-2C R/B               
1 53131U 22082D   22220.45391187  .00008873  00000+0  24613-3 0  9997
2 53131  97.3586 228.3870 0046908 288.0681  71.5455 15.36037913  3607
STARLINK-4063           
1 53132U 22083A   22220.58335648  .00037654  00000+0  27128-3 0  9996
2 53132  53.2174 298.0066 0002315  13.1088 148.6341 15.73217589  4112
STARLINK-4154           
1 53133U 22083B   22220.11079813  .00048937  00000+0  35060-3 0  9995
2 53133  53.2171 300.3524 0003505   7.2439 352.8631 15.73226034  4039
STARLINK-4150           
1 53134U 22083C   22220.16667824  .00053608  00000+0  38384-3 0  9999
2 53134  53.2174 300.0714 0001883  18.7790 299.8552 15.73205690  4043
STARLINK-4023           
1 53135U 22083D   22220.16667824  .00055551  00000+0  39739-3 0  9994
2 53135  53.2169 300.0724 0002090  27.2967 290.1447 15.73211695  4040
STARLINK-4152           
1 53136U 22083E   22220.16667824  .00085654  00000+0  60864-3 0  9995
2 53136  53.2172 300.0720 0002032  24.5132 293.5366 15.73193635  4041
STARLINK-4145           
1 53137U 22083F   22220.16667824  .00079633  00000+0  56699-3 0  9997
2 53137  53.2178 300.0721 0003553   8.3486 310.8955 15.73171829  4048
STARLINK-4141           
1 53138U 22083G   22220.16667824  .00086368  00000+0  61340-3 0  9990
2 53138  53.2166 299.5616 0002026  19.9431 186.3350 15.73202261  4054
STARLINK-4185           
1 53139U 22083H   22220.58335648 -.00041282  00000+0 -29010-3 0  9999
2 53139  53.2184 298.0084 0002590  20.7597 142.1492 15.73279144  4115
STARLINK-4170           
1 53140U 22083J   22220.58335648  .00025604  00000+0  18610-3 0  9993
2 53140  53.2177 298.0065 0002408  25.1709 137.1104 15.73222784  4112
STARLINK-4103           
1 53141U 22083K   22220.16667824  .00085760  00000+0  60935-3 0  9998
2 53141  53.2175 300.0608 0002159  28.1027 295.8816 15.73194722  4041
STARLINK-4101           
1 53142U 22083L   22220.10982544  .00002742  00000+0  23921-4 0  9996
2 53142  53.2199 300.3440 0001285 311.8057  48.2854 15.73223466  4038
STARLINK-4102           
1 53143U 22083M   22220.16667824  .00088197  00000+0  62657-3 0  9990
2 53143  53.2178 300.0604 0002223  24.6686 299.8960 15.73186551  4041
STARLINK-4100           
1 53144U 22083N   22220.16667824  .00086060  00000+0  61163-3 0  9999
2 53144  53.2180 300.0653 0002483  13.5036 309.3051 15.73186968  4043
STARLINK-4106           
1 53145U 22083P   22220.16667824  .00086021  00000+0  61156-3 0  9999
2 53145  53.2181 300.0591 0001955  22.6115 303.1867 15.73180139  4049
STARLINK-4099           
1 53146U 22083Q   22220.58335648  .00040613  00000+0  29208-3 0  9991
2 53146  53.2182 298.0037 0003368   7.3722 157.3290 15.73220187  4111
STARLINK-4094           
1 53147U 22083R   22220.25001157  .00025299  00000+0  18407-3 0  9993
2 53147  53.2179 299.6440 0002071  27.3828  51.2654 15.73207106  4057
STARLINK-4066           
1 53148U 22083S   22220.16667824  .00086945  00000+0  61770-3 0  9999
2 53148  53.2177 300.0586 0002070  31.2364 293.9275 15.73191805  4043
STARLINK-4021           
1 53149U 22083T   22220.16667824  .00089295  00000+0  63430-3 0  9996
2 53149  53.2176 300.0395 0002206  28.0631 306.0779 15.73184208  4047
STARLINK-4038           
1 53150U 22083U   22220.58335648  .00019320  00000+0  14163-3 0  9991
2 53150  53.2177 297.9940 0002341  23.1737 145.1261 15.73220055  4110
STARLINK-4040           
1 53151U 22083V   22220.10868034  .00009083  00000+0  68985-4 0  9997
2 53151  53.2191 300.3407 0001821  20.2900 339.8192 15.73228278  4037
STARLINK-4045           
1 53152U 22083W   22220.16667824  .00054934  00000+0  39321-3 0  9994
2 53152  53.2183 300.0567 0002228  25.3545 302.2591 15.73202278  4046
STARLINK-4098           
1 53153U 22083X   22220.16667824  .00085313  00000+0  60664-3 0  9994
2 53153  53.2181 300.0517 0002166  31.8930 297.4948 15.73178723  4049
STARLINK-4077           
1 53154U 22083Y   22220.16667824  .00073489  00000+0  52385-3 0  9997
2 53154  53.2169 300.0496 0001955  28.3580 299.8038 15.73181579  4048
STARLINK-4088           
1 53155U 22083Z   22220.58335648 -.00014897  00000+0 -10148-3 0  9991
2 53155  53.2183 297.9877 0003910   3.2083 169.2053 15.73280079  4115
STARLINK-4087           
1 53156U 22083AA  22220.58335648  .00026751  00000+0  19410-3 0  9993
2 53156  53.2183 297.9891 0002531  26.0894 145.7281 15.73236243  4119
STARLINK-4093           
1 53157U 22083AB  22219.91667824 -.00078975  00000+0 -56227-3 0  9997
2 53157  53.2180 301.2839 0002157  25.9311 329.6884 15.73250649  1300
STARLINK-4054           
1 53158U 22083AC  22220.58335648  .00025324  00000+0  18419-3 0  9998
2 53158  53.2179 297.9888 0002510  27.6673 143.6480 15.73213520  4112
STARLINK-4111           
1 53159U 22083AD  22220.25001157  .00046130  00000+0  33074-3 0  9990
2 53159  53.2190 299.6329 0003290   9.4614  76.3163 15.73234827  4061
STARLINK-4096           
1 53160U 22083AE  22220.58335648  .00026529  00000+0  19247-3 0  9999
2 53160  53.2189 297.9890 0002553  24.1958 148.8363 15.73243677  4117
STARLINK-4055           
1 53161U 22083AF  22220.16667824  .00054019  00000+0  38654-3 0  9996
2 53161  53.2179 300.0379 0002101  15.4190 319.9142 15.73216772  4049
STARLINK-4114           
1 53162U 22083AG  22220.16667824  .00087441  00000+0  62139-3 0  9997
2 53162  53.2183 300.0445 0002173  25.0813 307.8634 15.73183121  4040
STARLINK-4104           
1 53163U 22083AH  22220.58335648  .00006596  00000+0  51230-4 0  9993
2 53163  53.2185 297.9772 0002221  22.0520 155.7059 15.73270843  4113
STARLINK-4116           
1 53164U 22083AJ  22220.16667824  .00053233  00000+0  38110-3 0  9993
2 53164  53.2176 300.0378 0002049  28.1002 306.6368 15.73211766  4043
STARLINK-4090           
1 53165U 22083AK  22220.58335648  .00038150  00000+0  27460-3 0  9993
2 53165  53.2181 297.9728 0002306  22.2551 156.7308 15.73232931  4116
STARLINK-4110           
1 53166U 22083AL  22220.58335648 -.00056504  00000+0 -39895-3 0  9994
2 53166  53.2183 297.9773 0002428  28.0087 149.1608 15.73307909  4119
STARLINK-3683           
1 53167U 22083AM  22220.58335648  .00027890  00000+0  20206-3 0  9995
2 53167  53.2179 297.9665 0002551  23.1255 158.8674 15.73246810  4118
STARLINK-4105           
1 53168U 22083AN  22220.25001157  .00054004  00000+0  38639-3 0  9991
2 53168  53.2185 299.6235 0001962  26.5766  62.7484 15.73219607  4067
STARLINK-4117           
1 53169U 22083AP  22220.58335648 -.00038032  00000+0 -26643-3 0  9990
2 53169  53.2185 297.9698 0003418  12.5080 168.8466 15.73307131  4118
STARLINK-4095           
1 53170U 22083AQ  22220.58335648  .00034342  00000+0  24793-3 0  9994
2 53170  53.2190 297.9750 0002355  18.5028 161.1564 15.73215069  4115
STARLINK-4052           
1 53171U 22083AR  22220.25001157  .00054203  00000+0  38777-3 0  9999
2 53171  53.2185 299.6068 0002000  27.2616  70.4231 15.73220898  4061
STARLINK-4299           
1 53172U 22083AS  22219.91667824  .00011492  00000+0  86066-4 0  9998
2 53172  53.2182 301.2703 0002374  16.9907 345.1506 15.73234179  1305
STARLINK-4300           
1 53173U 22083AT  22220.58335648  .00053750  00000+0  38509-3 0  9991
2 53173  53.2185 297.9653 0002693  18.7861 165.0169 15.73188495  4112
STARLINK-4205           
1 53174U 22083AU  22220.58335648 -.00042103  00000+0 -29582-3 0  9995
2 53174  53.2182 297.9712 0003519  10.5800 170.2119 15.73286849  4112
STARLINK-4292           
1 53175U 22083AV  22220.58335648  .00036993  00000+0  26649-3 0  9995
2 53175  53.2186 297.9580 0002421  19.1246 168.8010 15.73228928  4117
STARLINK-4294           
1 53176U 22083AW  22219.91667824  .00013244  00000+0  98499-4 0  9992
2 53176  53.2179 301.2643 0002544  27.6280 336.8894 15.73233057  1301
STARLINK-4298           
1 53177U 22083AX  22220.25001157  .00053017  00000+0  37938-3 0  9995
2 53177  53.2193 299.6132 0002478  21.0283  74.8767 15.73223361  4069
STARLINK-4280           
1 53178U 22083AY  22219.91667824 -.00000052  00000+0  40488-5 0  9994
2 53178  53.2175 300.8011 0001733  38.4424 192.2888 15.73216217  1308
STARLINK-4276           
1 53179U 22083AZ  22220.58335648  .00022917  00000+0  16697-3 0  9992
2 53179  53.2190 297.9560 0002551  30.9274 158.2202 15.73239512  4117
STARLINK-4258           
1 53180U 22083BA  22220.25001157  .00012241  00000+0  91281-4 0  9995
2 53180  53.2188 299.6124 0002690  17.4942  77.7498 15.73259705  4069
STARLINK-4273           
1 53181U 22083BB  22220.58335648 -.00018482  00000+0 -12713-3 0  9994
2 53181  53.2190 297.9624 0002345  24.6819 161.4634 15.73271563  4114
STARLINK-4278           
1 53182U 22083BC  22220.58335648  .00036506  00000+0  26300-3 0  9997
2 53182  53.2189 297.9620 0002406  19.0361 166.5312 15.73233730  4110
STARLINK-4268           
1 53183U 22083BD  22220.25001157  .00049904  00000+0  35774-3 0  9998
2 53183  53.2188 299.6067 0002802  20.3995  77.8733 15.73206111  4060
STARLINK-4257           
1 53184U 22083BE  22220.25001157  .00050854  00000+0  36453-3 0  9990
2 53184  53.2193 299.6056 0002179  25.3728  74.1086 15.73201105  4060
